STARLINK-1480
1 45741U 20038M   26060.91493412  .00063139  00000+0  12325-2 0  9997
2 45741  53.0500 254.4064 0008452 153.2725 206.8718 15.46882205315276
STARLINK-1888
1 47171U 20088BB  26061.14808509  .00039207  00000+0  77110-3 0  9997
2 47171  53.0548 315.5346 0005351 122.7247 237.4276 15.46898137290984
